COMMENT,ORIGINATOR,NORAD_CAT_ID,OBJECT_NAME,OBJECT_TYPE,CLASSIFICATION_TYPE,INTLDES,EPOCH,EPOCH_MICROSECONDS,MEAN_MOTION,ECCENTRICITY,INCLINATION,RA_OF_ASC_NODE,ARG_OF_PERICENTER,MEAN_ANOMALY,EPHEMERIS_TYPE,ELEMENT_SET_NO,REV_AT_EPOCH,BSTAR,MEAN_MOTION_DOT,MEAN_MOTION_DDOT,FILE,TLE_LINE0,TLE_LINE1,TLE_LINE2,OBJECT_ID,OBJECT_NUMBER,SEMIMAJOR_AXIS,PERIOD,APOGEE,PERIGEE,DECAYED
"GENERATED VIA SPACETRACK.ORG API","18 SPCS","48893","SPACEBEE-106","PAYLOAD","U","21059Q","2021-07-23 21:13:23","380032","15.12076547","0.0010501","97.5185","333.3069","151.0358","209.1457","0","999","424","0.00016387","0.00002758","0","3082281","0 SPACEBEE-106","1 48893U 21059Q   21204.88429838  .00002758  00000-0  16387-3 0  9998","2 48893  97.5185 333.3069 0010501 151.0358 209.1457 15.12076547  4242","2021-059Q","48893","6908.005","95.233","537.124","522.616","0"
"GENERATED VIA SPACETRACK.ORG API","18 SPCS","48893","SPACEBEE-106","PAYLOAD","U","21059Q","2021-07-24 09:55:44","334912","15.12077966","0.0010539","97.5187","333.828","149.335","210.8498","0","999","432","0.000138","0.00002312","0","3082525","0 SPACEBEE-106","1 48893U 21059Q   21205.41370758  .00002312  00000-0  13800-3 0  9997","2 48893  97.5187 333.8280 0010539 149.3350 210.8498 15.12077966  4326","2021-059Q","48893","6908.001","95.233","537.146","522.586","0"
"GENERATED VIA SPACETRACK.ORG API","18 SPCS","48893","SPACEBEE-106","PAYLOAD","U","21059Q","2021-07-25 08:09:50","859936","15.12080954","0.0010597","97.5189","334.74","146.5024","213.6878","0","999","446","0.00011247","0.00001873","0","3082901","0 SPACEBEE-106","1 48893U 21059Q   21206.34017199  .00001873  00000-0  11247-3 0  9991","2 48893  97.5189 334.7400 0010597 146.5024 213.6878 15.12080954  4462","2021-059Q","48893","6907.992","95.233","537.177","522.536","0"
"GENERATED VIA SPACETRACK.ORG API","18 SPCS","48893","SPACEBEE-106","PAYLOAD","U","21059Q","2021-07-25 08:09:50","859936","15.12080954","0.0010597","97.5189","334.74","146.5024","213.6878","0","999","446","0.00011247","0.00001873","0","3082986","0 SPACEBEE-106","1 48893U 21059Q   21206.34017199  .00001873  00000-0  11247-3 0  9991","2 48893  97.5189 334.7400 0010597 146.5024 213.6878 15.12080954  4462","2021-059Q","48893","6907.992","95.233","537.177","522.536","0"
"GENERATED VIA SPACETRACK.ORG API","18 SPCS","48893","SPACEBEE-106","PAYLOAD","U","21059Q","2021-07-25 19:16:54","44256","15.12083117","0.0010629","97.519","335.196","145.0881","215.1049","0","999","453","0.0001145","0.00001908","0","3083115","0 SPACEBEE-106","1 48893U 21059Q   21206.80340329  .00001908  00000-0  11450-3 0  9991","2 48893  97.5190 335.1960 0010629 145.0881 215.1049 15.12083117  4530","2021-059Q","48893","6907.985","95.233","537.193","522.508","0"
"GENERATED VIA SPACETRACK.ORG API","18 SPCS","48893","SPACEBEE-106","PAYLOAD","U","21059Q","2021-07-26 07:59:14","790912","15.12084838","0.0010663","97.5191","335.7172","143.4379","216.7581","0","999","461","0.00010869","0.00001808","0","3083474","0 SPACEBEE-106","1 48893U 21059Q   21207.33281008  .00001808  00000-0  10869-3 0  9990","2 48893  97.5191 335.7172 0010663 143.4379 216.7581 15.12084838  4612","2021-059Q","48893","6907.980","95.233","537.211","522.479","0"
"GENERATED VIA SPACETRACK.ORG API","18 SPCS","48893","SPACEBEE-106","PAYLOAD","U","21059Q","2021-07-26 19:06:17","909568","15.12086528","0.0010698","97.5192","336.1732","142.0232","218.1754","0","999","468","0.00010974","0.00001826","0","3083550","0 SPACEBEE-106","1 48893U 21059Q   21207.79604062  .00001826  00000-0  10974-3 0  9996","2 48893  97.5192 336.1732 0010698 142.0232 218.1754 15.12086528  4684","2021-059Q","48893","6907.975","95.233","537.230","522.450","0"
"GENERATED VIA SPACETRACK.ORG API","18 SPCS","48893","SPACEBEE-106","PAYLOAD","U","21059Q","2021-07-27 07:48:38","574144","15.12088411","0.0010722","97.5192","336.6944","140.4091","219.7924","0","999","476","0.00011411","0.00001901","0","3084099","0 SPACEBEE-106","1 48893U 21059Q   21208.32544646  .00001901  00000-0  11411-3 0  9998","2 48893  97.5192 336.6944 0010722 140.4091 219.7924 15.12088411  4765","2021-059Q","48893","6907.969","95.233","537.241","522.427","0"
"GENERATED VIA SPACETRACK.ORG API","18 SPCS","48893","SPACEBEE-106","PAYLOAD","U","21059Q","2021-07-27 20:30:59","179104","15.12090331","0.0010757","97.5192","337.2156","138.8599","221.3444","0","999","484","0.00011832","0.00001974","0","3084335","0 SPACEBEE-106","1 48893U 21059Q   21208.85485161  .00001974  00000-0  11832-3 0  9999","2 48893  97.5192 337.2156 0010757 138.8599 221.3444 15.12090331  4848","2021-059Q","48893","6907.963","95.232","537.259","522.397","0"
"GENERATED VIA SPACETRACK.ORG API","18 SPCS","48893","SPACEBEE-106","PAYLOAD","U","21059Q","2021-07-28 02:52:09","462144","15.12091307","0.0010775","97.5192","337.4762","138.0478","222.158","0","999","488","0.00012256","0.00002047","0","3084418","0 SPACEBEE-106","1 48893U 21059Q   21209.11955396  .00002047  00000-0  12256-3 0  9994","2 48893  97.5192 337.4762 0010775 138.0478 222.1580 15.12091307  4889","2021-059Q","48893","6907.960","95.232","537.269","522.382","0"
"GENERATED VIA SPACETRACK.ORG API","18 SPCS","48893","SPACEBEE-106","PAYLOAD","U","21059Q","2021-07-28 07:38:02","156064","15.12092326","0.0010785","97.5192","337.6717","137.3776","222.8293","0","999","491","0.0001277","0.00002136","0","3084730","0 SPACEBEE-106","1 48893U 21059Q   21209.31808051  .00002136  00000-0  12770-3 0  9991","2 48893  97.5192 337.6717 0010785 137.3776 222.8293 15.12092326  4919","2021-059Q","48893","6907.957","95.232","537.272","522.372","0"
"GENERATED VIA SPACETRACK.ORG API","18 SPCS","48893","SPACEBEE-106","PAYLOAD","U","21059Q","2021-07-28 20:20:22","623648","15.12094708","0.0010829","97.5192","338.1929","135.7778","224.432","0","999","499","0.00013625","0.00002283","0","3085005","0 SPACEBEE-106","1 48893U 21059Q   21209.84748407  .00002283  00000-0  13625-3 0  9990","2 48893  97.5192 338.1929 0010829 135.7778 224.4320 15.12094708  4996","2021-059Q","48893","6907.950","95.232","537.296","522.334","0"
"GENERATED VIA SPACETRACK.ORG API","18 SPCS","48893","SPACEBEE-106","PAYLOAD","U","21059Q","2021-07-29 07:27:25","299936","15.12099562","0.0010828","97.5192","338.649","134.4657","225.7461","0","999","506","0.00017457","0.00002944","0","3085334","0 SPACEBEE-106","1 48893U 21059Q   21210.31070949  .00002944  00000-0  17457-3 0  9994","2 48893  97.5192 338.6490 0010828 134.4657 225.7461 15.12099562  5067","2021-059Q","48893","6907.935","95.232","537.280","522.320","0"
"GENERATED VIA SPACETRACK.ORG API","18 SPCS","48893","SPACEBEE-106","PAYLOAD","U","21059Q","2021-07-29 07:27:25","299936","15.12099562","0.0010828","97.5192","338.649","134.4657","225.7461","0","999","506","0.00017457","0.00002944","0","3085488","0 SPACEBEE-106","1 48893U 21059Q   21210.31070949  .00002944  00000-0  17457-3 0  9994","2 48893  97.5192 338.6490 0010828 134.4657 225.7461 15.12099562  5067","2021-059Q","48893","6907.935","95.232","537.280","522.320","0"
"GENERATED VIA SPACETRACK.ORG API","18 SPCS","48893","SPACEBEE-106","PAYLOAD","U","21059Q","2021-07-29 20:09:45","407232","15.12105314","0.0010887","97.519","339.1701","132.968","227.2466","0","999","514","0.00021618","0.00003662","0","3085670","0 SPACEBEE-106","1 48893U 21059Q   21210.84010888  .00003662  00000-0  21618-3 0  9990","2 48893  97.5190 339.1701 0010887 132.9680 227.2466 15.12105314  5144","2021-059Q","48893","6907.918","95.231","537.303","522.262","0"
"GENERATED VIA SPACETRACK.ORG API","18 SPCS","48893","SPACEBEE-106","PAYLOAD","U","21059Q","2021-07-30 07:16:47","961696","15.12108297","0.0010913","97.519","339.6263","131.4415","228.7755","0","999","521","0.00021501","0.00003642","0","3085948","0 SPACEBEE-106","1 48893U 21059Q   21211.30333289  .00003642  00000-0  21501-3 0  9994","2 48893  97.5190 339.6263 0010913 131.4415 228.7755 15.12108297  5210","2021-059Q","48893","6907.909","95.231","537.312","522.235","0"
"GENERATED VIA SPACETRACK.ORG API","18 SPCS","48893","SPACEBEE-106","PAYLOAD","U","21059Q","2021-07-30 15:13:15","459744","15.12110796","0.001093","97.519","339.9522","130.1954","230.0235","0","999","526","0.00022035","0.00003735","0","3086099","0 SPACEBEE-106","1 48893U 21059Q   21211.63420671  .00003735  00000-0  22035-3 0  9998","2 48893  97.5190 339.9522 0010930 130.1954 230.0235 15.12110796  5265","2021-059Q","48893","6907.901","95.231","537.316","522.216","0"
"GENERATED VIA SPACETRACK.ORG API","18 SPCS","48893","SPACEBEE-106","PAYLOAD","U","21059Q","2021-07-30 15:13:15","459744","15.12110796","0.001093","97.519","339.9522","130.1954","230.0235","0","999","526","0.00022035","0.00003735","0","3086384","0 SPACEBEE-106","1 48893U 21059Q   21211.63420671  .00003735  00000-0  22035-3 0  9998","2 48893  97.5190 339.9522 0010930 130.1954 230.0235 15.12110796  5265","2021-059Q","48893","6907.901","95.231","537.316","522.216","0"
"GENERATED VIA SPACETRACK.ORG API","18 SPCS","48893","SPACEBEE-106","PAYLOAD","U","21059Q","2021-07-31 07:06:10","283904","15.1211122","0.0010982","97.5191","340.6032","128.3786","231.8433","0","999","536","0.00011817","0.00001973","0","3086827","0 SPACEBEE-106","1 48893U 21059Q   21212.29595236  .00001973  00000-0  11817-3 0  9999","2 48893  97.5191 340.6032 0010982 128.3786 231.8433 15.12111220  5363","2021-059Q","48893","6907.900","95.231","537.351","522.178","0"
"GENERATED VIA SPACETRACK.ORG API","18 SPCS","48893","SPACEBEE-106","PAYLOAD","U","21059Q","2021-07-31 18:13:12","663840","15.12112755","0.0010998","97.5192","341.0593","127.0155","233.2083","0","999","543","0.0001139","0.00001899","0","3086909","0 SPACEBEE-106","1 48893U 21059Q   21212.75917435  .00001899  00000-0  11390-3 0  9992","2 48893  97.5192 341.0593 0010998 127.0155 233.2083 15.12112755  5433","2021-059Q","48893","6907.895","95.231","537.357","522.163","0"
